[Satellite]
VERSION=1.1
NAME=BADR-6
NICKNAME=BADR-6
TLE1=1 33154U 08034B   15054.90072019  .00000118  00000-0  00000+0 0  9993
TLE2=2 33154   0.0620  28.8822 0003751 329.3263 145.4513  1.00269727 24340
